BEIDOU-2 IGSO-1 (C06)   
1 36828U 10036A   23047.84222051 -.00000146  00000+0  00000+0 0  9997
2 36828  54.2091 173.9965 0035053 185.0439 199.0022  1.00280767 46033
BEIDOU-2 G4 (C04)       
1 37210U 10057A   23046.06550855 -.00000105  00000+0  00000+0 0  9990
2 37210   0.9866  54.2839 0004458 181.2354  92.9513  1.00271916 45061
BEIDOU-2 IGSO-2 (C07)   
1 37256U 10068A   23047.59553953 -.00000159  00000+0  00000+0 0  9992
2 37256  49.7714 286.7176 0023149 205.3174 336.0526  1.00290940 44597
BEIDOU-2 IGSO-3 (C08)   
1 37384U 11013A   23047.93771332 -.00000144  00000+0  00000+0 0  9990
2 37384  60.6533  51.8446 0024511 188.7189 349.8490  1.00289624 43470
BEIDOU-2 IGSO-4 (C09)   
1 37763U 11038A   23047.83078111 -.00000073  00000+0  00000+0 0  9993
2 37763  54.4883 176.5067 0104197 227.6055 137.0368  1.00272706 42459
BEIDOU-2 IGSO-5 (C10)   
1 37948U 11073A   23046.62827174 -.00000118  00000+0  00000+0 0  9994
2 37948  49.8956 286.3828 0085142 220.1710 321.2352  1.00278978 41199
BEIDOU-2 G5 (C05)       
1 38091U 12008A   23047.94007797  .00000054  00000+0  00000+0 0  9998
2 38091   2.1259  71.6235 0013266 308.9702 163.1573  1.00271400 40288
BEIDOU-2 M3 (C11)       
1 38250U 12018A   23047.65145278 -.00000085  00000+0  00000+0 0  9996
2 38250  56.6087 345.4867 0023643 262.4088 232.0417  1.86231438 73631
BEIDOU-2 M4 (C12)       
1 38251U 12018B   23047.65901953 -.00000085  00000+0  00000+0 0  9997
2 38251  56.5225 344.7943 0014753 268.4316 275.4945  1.86234293 73633
BEIDOU-2 M6 (C14)       
1 38775U 12050B   23047.72477447 -.00000002  00000+0  00000+0 0  9997
2 38775  55.5520 103.4683 0013069 322.0154 101.1823  1.86231262 71011
BEIDOU-2 G6 (C02)       
1 38953U 12059A   23047.89031722 -.00000177  00000+0  00000+0 0  9997
2 38953   1.5300  82.4190 0010969 297.7989 170.8690  1.00268586 37714
BEIDOU-3S IGSO-1S (C31) 
1 40549U 15019A   23047.75345277 -.00000147  00000+0  00000+0 0  9995
2 40549  51.4593 309.9092 0035717 193.4718   5.8806  1.00300285 28881
BEIDOU-3S M2S (C57)     
1 40748U 15037A   23047.81232855 -.00000085  00000+0  00000+0 0  9991
2 40748  55.7686 343.5063 0004928 349.8361 205.9922  1.86233378 51469
BEIDOU-3S M1S (C58)     
1 40749U 15037B   23047.86822606 -.00000085  00000+0  00000+0 0  9996
2 40749  55.7712 343.4945 0006933 322.8556  44.4575  1.86233115 51462
BEIDOU-3S IGSO-2S (C56) 
1 40938U 15053A   23047.59146544 -.00000077  00000+0  00000+0 0  9995
2 40938  51.1185 273.0566 0043221 193.0920 349.0476  1.00282737 27150
BEIDOU-2 IGSO-6 (C13)   
1 41434U 16021A   23047.46229995 -.00000127  00000+0  00000+0 0  9997
2 41434  58.4554  50.3139 0049186 225.3128 133.3228  1.00278494 25274
BEIDOU-2 G7 (C03)       
1 41586U 16037A   23047.91895744 -.00000357  00000+0  00000+0 0  9998
2 41586   1.9291  70.7271 0008405 347.7580 169.4869  1.00272669 24599
BEIDOU-3 M1 (C19)       
1 43001U 17069A   23047.43316435 -.00000003  00000+0  00000+0 0  9998
2 43001  55.7037 103.5106 0010989 287.6905  96.4572  1.86231584 35949
BEIDOU-3 M2 (C20)       
1 43002U 17069B   23046.79840097 -.00000006  00000+0  00000+0 0  9996
2 43002  55.7028 103.5679 0008227 307.4821  53.8289  1.86231332 35926
BEIDOU-3 M7 (C27)       
1 43107U 18003A   23046.81716037 -.00000084  00000+0  00000+0 0  9996
2 43107  55.2207 344.3493 0004561  41.9944 138.4355  1.86232398 34687
BEIDOU-3 M8 (C28)       
1 43108U 18003B   23047.86378148 -.00000086  00000+0  00000+0 0  9992
2 43108  55.2160 344.3020 0003912 274.0250 290.6411  1.86230955 34704
BEIDOU-3 M4 (C22)       
1 43207U 18018A   23046.92807525 -.00000006  00000+0  00000+0 0  9992
2 43207  55.6627 103.6338 0005244 325.2777  34.7561  1.86231488 34072
BEIDOU-3 M3 (C21)       
1 43208U 18018B   23046.99468069 -.00000005  00000+0  00000+0 0  9995
2 43208  55.6621 103.6361 0008485 294.7583  65.2220  1.86231651 34071
BEIDOU-3 M9 (C29)       
1 43245U 18029A   23047.50448514 -.00000084  00000+0  00000+0 0  9996
2 43245  55.1250 342.0767 0001629 323.1264 228.7473  1.86232558 33230
BEIDOU-3 M10 (C30)      
1 43246U 18029B   23046.35396556 -.00000082  00000+0  10000-3 0  9990
2 43246  55.1228 342.1456 0004943 351.5355 195.6999  1.86232755 33201
BEIDOU-2 IGSO-7 (C16)   
1 43539U 18057A   23047.77928561 -.00000147  00000+0  00000+0 0  9997
2 43539  55.1027 173.5852 0056425 228.0960 136.0993  1.00291743 16966
BEIDOU-3 M5 (C23)       
1 43581U 18062A   23047.63592083  .00000087  00000+0  00000+0 0  9993
2 43581  54.2156 223.7307 0001798 337.7385 200.6840  1.86231896 30974
BEIDOU-3 M6 (C24)       
1 43582U 18062B   23047.50238424  .00000089  00000+0  00000+0 0  9998
2 43582  54.2184 223.7258 0006746  30.8910 149.6479  1.86229833 30972
BEIDOU-3 M12 (C26)      
1 43602U 18067A   23047.46477427  .00000088  00000+0  00000+0 0  9998
2 43602  54.3007 222.3628 0007970  23.7240 172.8288  1.86231662 30466
BEIDOU-3 M11 (C25)      
1 43603U 18067B   23047.56854238  .00000087  00000+0  00000+0 0  9998
2 43603  54.2975 222.3256 0004803  20.3237 156.1267  1.86231563 30482
BEIDOU-3 M13 (C32)      
1 43622U 18072A   23046.18243772 -.00000008  00000+0  00000+0 0  9991
2 43622  55.6297 103.2049 0007480 280.7175  74.8807  1.86231398 29962
BEIDOU-3 M14 (C33)      
1 43623U 18072B   23046.16699976 -.00000008  00000+0  00000+0 0  9991
2 43623  55.6319 103.1981 0004992 300.7668 134.7176  1.86231379 29972
BEIDOU-3 M16 (C35)      
1 43647U 18078A   23047.55605035 -.00000084  00000+0  10000-3 0  9999
2 43647  55.0215 342.2135 0008509   1.3277 179.9411  1.86227321 29506
BEIDOU-3 M15 (C34)      
1 43648U 18078B   23047.65596550 -.00000085  00000+0  00000+0 0  9998
2 43648  55.0157 342.2150 0005236   6.9625 150.1548  1.86232209 29526
BEIDOU-3 G1 (C59)       
1 43683U 18085A   23047.87260116 -.00000281  00000+0  00000+0 0  9993
2 43683   1.1188 141.9608 0001990  26.6869  72.1445  1.00271596 15864
BEIDOU-3 M17 (C36)      
1 43706U 18093A   23047.57121197  .00000088  00000+0  00000+0 0  9994
2 43706  54.2987 223.6353 0006675 287.7047  72.2173  1.86231757 28888
BEIDOU-3 M18 (C37)      
1 43707U 18093B   23047.70298154  .00000086  00000+0  00000+0 0  9996
2 43707  54.2986 223.6222 0006414 328.4972 211.2283  1.86232248 28876
BEIDOU-3 IGSO-1 (C38)   
1 44204U 19023A   23047.71556266 -.00000185  00000+0  00000+0 0  9996
2 44204  56.9198  50.3567 0020972 208.5579 263.8150  1.00289316 14163
BEIDOU-2 G8 (C01)       
1 44231U 19027A   23047.88868575 -.00000250  00000+0  00000+0 0  9990
2 44231   1.4566  80.8792 0005200 143.1030  27.1100  1.00272063 13872
BEIDOU-3 IGSO-2 (C39)   
1 44337U 19035A   23047.78308333 -.00000159  00000+0  00000+0 0  9994
2 44337  55.1395 169.5534 0029667 194.0800 183.9450  1.00283052 13506
BEIDOU-3 M24 (C46)      
1 44542U 19061A   23046.97101899  .00000097  00000+0  00000+0 0  9999
2 44542  54.5258 223.8458 0008299   3.8075 356.1970  1.86231188 23120
BEIDOU-3 M23 (C45)      
1 44543U 19061B   23047.36832464  .00000092  00000+0  00000+0 0  9998
2 44543  54.5224 223.8022 0005375   3.1541 174.8372  1.86231723 23120
BEIDOU-3 IGSO-3 (C40)   
1 44709U 19073A   23047.58144278 -.00000153  00000+0  00000+0 0  9997
2 44709  56.8714 293.8445 0028679 178.8068   1.4659  1.00288463 12248
BEIDOU-3 M22 (C44)      
1 44793U 19078A   23046.54980016 -.00000082  00000+0  10000-3 0  9994
2 44793  54.8696 342.2398 0007103   7.0249 174.6471  1.86232106 21979
BEIDOU-3 M21 (C43)      
1 44794U 19078B   23047.76966023 -.00000085  00000+0  00000+0 0  9990
2 44794  54.8428 342.1842 0005224 359.2855 192.3436  1.86232654 21991
BEIDOU-3 M19 (C41)      
1 44864U 19090A   23047.19497060 -.00000004  00000+0  00000+0 0  9990
2 44864  55.5656 103.3690 0018255 270.7010  89.8057  1.86231780 21578
BEIDOU-3 M20 (C42)      
1 44865U 19090B   23047.65348634 -.00000002  00000+0  00000+0 0  9992
2 44865  55.5683 103.3857 0016331 283.3781 114.3682  1.86231756 21551
BEIDOU-3 G2 (C60)       
1 45344U 20017A   23047.89493784 -.00000143  00000+0  00000+0 0  9995
2 45344   1.9886   5.2407 0000982  14.3718 169.2049  1.00270839 11064
BEIDOU-3 G3 (C61)       
1 45807U 20040A   23047.91895744 -.00000355  00000+0  00000+0 0  9995
2 45807   0.9175 315.5194 0007565 337.6079 294.8577  1.00272813  9874
